{
    "links": {
        "self": "http://www.neowsapp.com/rest/v1/neo/3736236?api_key=iIulBulltgU6a56xZRHN4H3l9WmuAYTsLGpBGhQ2"
    },
    "id": "3736236",
    "neo_reference_id": "3736236",
    "name": "(2015 XQ129)",
    "designation": "2015 XQ129",
    "nasa_jpl_url": "http://ssd.jpl.nasa.gov/sbdb.cgi?sstr=3736236",
    "absolute_magnitude_h": 24.4,
    "estimated_diameter": {
        "kilometers": {
            "estimated_diameter_min": 0.0350392641,
            "estimated_diameter_max": 0.0783501764
        },
        "meters": {
            "estimated_diameter_min": 35.0392641108,
            "estimated_diameter_max": 78.3501764334
        },
        "miles": {
            "estimated_diameter_min": 0.0217723826,
            "estimated_diameter_max": 0.0486845275
        },
        "feet": {
            "estimated_diameter_min": 114.9582192654,
            "estimated_diameter_max": 257.0543928497
        }
    },
    "is_potentially_hazardous_asteroid": false,
    "close_approach_data": [
        {
            "close_approach_date": "2015-11-16",
            "close_approach_date_full": "2015-Nov-16 16:04",
            "epoch_date_close_approach": 1447689840000,
            "relative_velocity": {
                "kilometers_per_second": "17.8404163278",
                "kilometers_per_hour": "64225.4987801556",
                "miles_per_hour": "39907.2272837028"
            },
            "miss_distance": {
                "astronomical": "0.0243897258",
                "lunar": "9.4876033362",
                "kilometers": "3648651.029564046",
                "miles": "2267166.6198579948"
            },
            "orbiting_body": "Earth"
        },
        {
            "close_approach_date": "2063-07-28",
            "close_approach_date_full": "2063-Jul-28 10:15",
            "epoch_date_close_approach": 2952843300000,
            "relative_velocity": {
                "kilometers_per_second": "4.2246026799",
                "kilometers_per_hour": "15208.5696475853",
                "miles_per_hour": "9450.0137346343"
            },
            "miss_distance": {
                "astronomical": "1.2896900745",
                "lunar": "501.6894389805",
                "kilometers": "192934888.105341315",
                "miles": "119884180.365347547"
            },
            "orbiting_body": "Juptr"
        }
    ],
    "orbital_data": {
        "orbit_id": "5",
        "orbit_determination_date": "2018-02-10 07:07:16",
        "first_observation_date": "2015-12-01",
        "last_observation_date": "2015-12-08",
        "data_arc_in_days": 7,
        "observations_used": 18,
        "orbit_uncertainty": "9",
        "minimum_orbit_intersection": ".00601822",
        "jupiter_tisserand_invariant": "3.128",
        "epoch_osculation": "2457361.5",
        "eccentricity": ".6909297010865785",
        "semi_major_axis": "2.431294507035493",
        "inclination": "1.413170822817605",
        "ascending_node_longitude": "112.2369208218793",
        "orbital_period": "1384.697092214847",
        "perihelion_distance": ".7514409200360197",
        "perihelion_argument": "234.8187025995083",
        "aphelion_distance": "4.111148094034967",
        "perihelion_time": "2457302.312272341106",
        "mean_anomaly": "15.38790113520062",
        "mean_motion": ".2599846580338909",
        "equinox": "J2000",
        "orbit_class": {
            "orbit_class_type": "APO",
            "orbit_class_description": "Near-Earth asteroid orbits which cross the Earth’s orbit similar to that of 1862 Apollo",
            "orbit_class_range": "a (semi-major axis) > 1.0 AU; q (perihelion) < 1.017 AU"
        }
    },
    "is_sentry_object": false
}